[{"OBJECT_NAME":"OBJECT A","OBJECT_ID":"2023-189A","EPOCH":"2026-03-09T22:59:06.381600","MEAN_MOTION":15.32403275,"ECCENTRICITY":0.00094831,"INCLINATION":97.4458,"RA_OF_ASC_NODE":86.5997,"ARG_OF_PERICENTER":249.5377,"MEAN_ANOMALY":110.4847,"EPHEMERIS_TYPE":0,"CLASSIFICATION_TYPE":"U","NORAD_CAT_ID":58502,"ELEMENT_SET_NO":999,"REV_AT_EPOCH":12601,"BSTAR":0.00019874471,"MEAN_MOTION_DOT":6.146e-5,"MEAN_MOTION_DDOT":0},{"OBJECT_NAME":"STARLINK-31106","OBJECT_ID":"2023-211Y","EPOCH":"2026-03-09T02:16:57.114336","MEAN_MOTION":15.27576272,"ECCENTRICITY":6.219e-5,"INCLINATION":43.0024,"RA_OF_ASC_NODE":88.6354,"ARG_OF_PERICENTER":276.696,"MEAN_ANOMALY":83.382,"EPHEMERIS_TYPE":0,"CLASSIFICATION_TYPE":"U","NORAD_CAT_ID":58689,"ELEMENT_SET_NO":999,"REV_AT_EPOCH":12237,"BSTAR":4.3779382e-5,"MEAN_MOTION_DOT":9.43e-6,"MEAN_MOTION_DDOT":0}]
